STARLINK-1307           
1 45397U 20019AP  22358.49404757  .00001397  00000+0  11267-3 0  9999
2 45397  53.0566   4.3096 0001634  42.1226 317.9888 15.06400522153309
STARLINK-1312           
1 45398U 20019AQ  22358.28763422  .00000085  00000+0  24592-4 0  9993
2 45398  53.0558   5.2613 0001924  42.8887 317.2252 15.06402526153201
STARLINK-1255           
1 45399U 20019AR  22357.99736957  .00002161  00000+0  16393-3 0  9990
2 45399  53.0563 356.5399 0001816  41.4581 318.6545 15.06404012153355
STARLINK-1213           
1 45400U 20019AS  22358.01211117  .00002880  00000+0  21218-3 0  9993
2 45400  53.0566 356.4902 0002044  52.7869 307.3307 15.06400610153281
STARLINK-1256           
1 45401U 20019AT  22358.27381986  .00006267  00000+0  43916-3 0  9996
2 45401  53.0540 355.3237 0002034  44.0388 316.0763 15.06406100153397
STARLINK-1257           
1 45402U 20019AU  22358.00380048  .00007466  00000+0  51945-3 0  9999
2 45402  53.0553 356.5205 0001658  44.0292 316.0829 15.06409028153356
STARLINK-1259           
1 45403U 20019AV  22357.48872006  .00005677  00000+0  39969-3 0  9995
2 45403  53.0559 358.8230 0001955  53.1428 306.9740 15.06402368153279
STARLINK-1260           
1 45404U 20019AW  22357.49977251  .00001696  00000+0  13275-3 0  9994
2 45404  53.0563 358.7955 0002290  38.7268 321.3885 15.06391935153180
STARLINK-1263           
1 45405U 20019AX  22358.48023338  .00005005  00000+0  35456-3 0  9996
2 45405  53.0551 354.3967 0002605  39.0747 321.0430 15.06408822153333
STARLINK-1265           
1 45406U 20019AY  22357.42605998  .00000741  00000+0  68640-4 0  9992
2 45406  53.0573 359.1110 0001877  62.6635 297.4545 15.06395704153178
STARLINK-1275           
1 45407U 20019AZ  22357.70525136  .00000305  00000+0  39377-4 0  9990
2 45407  53.0555 357.8642 0001682  59.1517 300.9637 15.06381919153218
STARLINK-1278           
1 45408U 20019BA  22357.78450370  .00001035  00000+0  88409-4 0  9997
2 45408  53.0566  27.5132 0002162  39.1915 320.9230 15.06397217152814
STARLINK-1282           
1 45409U 20019BB  22358.04528673  .00002905  00000+0  21389-3 0  9990
2 45409  53.0555 356.3375 0002015  46.2865 313.8291 15.06393851153274
STARLINK-1293           
1 45411U 20019BD  22358.25907974  .00002196  00000+0  16629-3 0  9994
2 45411  53.0554 355.3720 0001664  86.0956 274.0223 15.06404348153302
STARLINK-1296           
1 45412U 20019BE  22358.09320364  .00000542  00000+0  55275-4 0  9993
2 45412  53.0563 356.1075 0002298  38.4947 321.6206 15.06401232153275
STARLINK-1298           
1 45413U 20019BF  22358.25539045  .00001455  00000+0  11658-3 0  9990
2 45413  53.0549 355.3812 0002278  47.6557 312.4625 15.06395335153399
STARLINK-1309           
1 45414U 20019BG  22357.97525636  .00000880  00000+0  78019-4 0  9996
2 45414  53.0541 356.6637 0002040  44.0837 316.0314 15.06395495153268
STARLINK-1316           
1 45415U 20019BH  22358.39913992  .00001446  00000+0  11596-3 0  9995
2 45415  53.0549 354.7545 0002016  57.2298 302.8885 15.06400912153340
STARLINK-1318           
1 45416U 20019BJ  22358.29962051  .00001772  00000+0  13784-3 0  9998
2 45416  53.0552 355.1861 0002364  36.9430 323.1722 15.06394206153310
STARLINK-1286           
1 45417U 20019BK  22358.50325965  .00000249  00000+0  35659-4 0  9994
2 45417  53.0567  24.2766 0002161  39.9217 320.1931 15.06397350153206
STARLINK-1299           
1 45418U 20019BL  22357.53781580  .00032403  00000+0  17936-2 0  9999
2 45418  52.9967  45.7615 0001062 354.8070   5.2910 15.13578433152494
STARLINK-1308           
1 45419U 20019BM  22357.50437547  .00000406  00000+0  46139-4 0  9995
2 45419  53.0551  28.7648 0001747  57.0904 303.0253 15.06395254152793
STARLINK-1329           
1 45531U 20025A   22358.40190854  .00000802  00000+0  72729-4 0  9998
2 45531  53.0563 324.7442 0001901  47.9169 312.1982 15.06391290147953
STARLINK-1338           
1 45532U 20025B   22357.61680051  .00002955  00000+0  21717-3 0  9995
2 45532  53.0531 328.2703 0001392  93.8244 266.2904 15.06399101148432
STARLINK-1341           
1 45534U 20025D   22357.62785437  .00003697  00000+0  26695-3 0  9996
2 45534  53.0553 328.2059 0002502  34.7355 325.3796 15.06401784148430
STARLINK-1350           
1 45535U 20025E   22358.17705092  .00003688  00000+0  26626-3 0  9991
2 45535  53.0569 325.7514 0001720  67.6553 292.4618 15.06409222147938
STARLINK-1352           
1 45536U 20025F   22357.45093255  .00000077  00000+0  24101-4 0  9999
2 45536  53.0547 329.0055 0001850 108.1199 251.9991 15.06401708147826
STARLINK-1353           
1 45537U 20025G   22357.42883809  .00114316  00000+0  24020-2 0  9999
2 45537  52.9707 248.9911 0006816 132.4714 227.6868 15.44460777148897
STARLINK-1362           
1 45538U 20025H   22358.33924025  .00001427  00000+0  11471-3 0  9992
2 45538  53.0554 325.0201 0002128  47.6745 312.4424 15.06399957147958
STARLINK-1368           
1 45540U 20025K   22358.18442965  .00001325  00000+0  10782-3 0  9997
2 45540  53.0561 325.7232 0001925  55.0782 305.0388 15.06401526147939
STARLINK-1369           
1 45541U 20025L   22357.65734544  .00001958  00000+0  15033-3 0  9992
2 45541  53.0568 328.0873 0001719  53.6735 306.4412 15.06389017148436
STARLINK-1371           
1 45542U 20025M   22358.42033032  .00001910  00000+0  14712-3 0  9994
2 45542  53.0548 324.6600 0001737  57.2367 302.8789 15.06398053147960
STARLINK-1372           
1 45543U 20025N   22357.66103366  .00001918  00000+0  14764-3 0  9993
2 45543  53.0550 328.0652 0001641  76.3991 283.7180 15.06404519147538
STARLINK-1373           
1 45544U 20025P   22358.40927181  .00001671  00000+0  13101-3 0  9996
2 45544  53.0558 324.7098 0001824  51.8175 308.2979 15.06408009147952
STARLINK-1374           
1 45545U 20025Q   22358.09597338  .00007807  00000+0  54223-3 0  9996
2 45545  53.0525 326.1174 0001893  81.1067 279.0136 15.06413458147921
STARLINK-1375           
1 45546U 20025R   22357.97433567  .00003266  00000+0  23803-3 0  9991
2 45546  53.0545 326.6542 0001841  57.2443 302.8723 15.06406505147891
STARLINK-1377           
1 45547U 20025S   22358.10334402  .00002647  00000+0  19651-3 0  9994
2 45547  53.0537 326.0866 0001829  58.0936 302.0231 15.06399518147923
STARLINK-1378           
1 45548U 20025T   22357.66471662  .00005372  00000+0  37925-3 0  9997
2 45548  53.0544 328.0438 0002006  48.5392 311.5769 15.06400271148434
STARLINK-1390           
1 45550U 20025V   22357.88125125  .00002244  00000+0  16953-3 0  9997
2 45550  53.0573 327.0622 0001812  49.7488 310.3659 15.06397488147873
STARLINK-1294           
1 45551U 20025W   22358.14941809  .00003350  00000+0  24371-3 0  9995
2 45551  53.0550 305.8832 0001708  59.1938 300.9219 15.06400656148189
STARLINK-1323           
1 45553U 20025Y   22358.16047550  .00000795  00000+0  72260-4 0  9990
2 45553  53.0564 305.8210 0001678  63.7452 296.3710 15.06394468148192
STARLINK-1325           
1 45554U 20025Z   22358.15215587  .00000488  00000+0  51653-4 0  9999
2 45554  53.0552 305.8527 0001813  47.9145 312.1998 15.06398736148181
STARLINK-1327           
1 45555U 20025AA  22357.85085629  .00003566  00000+0  25817-3 0  9990
2 45555  53.0521 307.2164 0001301  88.4947 271.6191 15.06399255148746
STARLINK-1334           
1 45556U 20025AB  22358.15678152  .00001614  00000+0  12723-3 0  9998
2 45556  53.0549 305.8336 0001663  60.9731 299.1425 15.06401020148197
STARLINK-1336           
1 45557U 20025AC  22358.16416046  .00001719  00000+0  13431-3 0  9995
2 45557  53.0540 305.8001 0001426  70.0406 290.0737 15.06395251148190
STARLINK-1342           
1 45558U 20025AD  22357.86560219  .00001885  00000+0  14546-3 0  9996
2 45558  53.0550 307.1496 0001854  61.7836 298.3340 15.06394922148740
STARLINK-1344           
1 45559U 20025AE  22358.29590720  .00000358  00000+0  42908-4 0  9993
2 45559  53.0568 305.1541 0001630  60.4710 299.6442 15.06400118148212
STARLINK-1346           
1 45560U 20025AF  22358.08673571  .00001344  00000+0  10910-3 0  9991
2 45560  53.0546 296.1506 0001543  68.9673 291.1481 15.06392587148326
STARLINK-1348           
1 45561U 20025AG  22357.84304516  .00040521  00000+0  16686-2 0  9990
2 45561  53.0657 201.7624 0005949 125.8431 234.3119 15.23732662150233
STARLINK-1354           
1 45562U 20025AH  22358.10886894  .00000999  00000+0  85942-4 0  9993
2 45562  53.0567 306.0407 0001640  62.5885 297.5271 15.06400699148180
STARLINK-1355           
1 45563U 20025AJ  22358.12361047  .00002423  00000+0  18153-3 0  9997
2 45563  53.0574 305.9775 0001609  71.3286 288.7877 15.06400277148189
STARLINK-1356           
1 45564U 20025AK  22358.38535180 -.00013780  00000+0 -90925-3 0  9994
2 45564  53.0536 304.8170 0001879  78.4826 281.6374 15.06347669148226
STARLINK-1357           
1 45565U 20025AL  22357.97987103  .00002032  00000+0  15534-3 0  9994
2 45565  53.0564 306.6352 0001507  68.6727 291.4423 15.06387627148164
STARLINK-1358           
1 45566U 20025AM  22358.12729626  .00003969  00000+0  28513-3 0  9998
2 45566  53.0539 305.9701 0001471  83.5368 276.5789 15.06409261148184
STARLINK-1361           
1 45567U 20025AN  22358.13835583  .00000790  00000+0  71934-4 0  9995
2 45567  53.0571 305.9088 0001624  65.5372 294.5786 15.06404090148186
STARLINK-1363           
1 45568U 20025AP  22358.08678049  .00001860  00000+0  14372-3 0  9993
2 45568  53.0567 306.4020 0001804  54.2870 305.8287 15.06404664148170
STARLINK-1366           
1 45569U 20025AQ  22358.20839262  .00003207  00000+0  23413-3 0  9997
2 45569  53.0559 305.6132 0002397  40.3802 319.7364 15.06401568148198
STARLINK-1376           
1 45570U 20025AR  22357.33850747  .00001706  00000+0  13345-3 0  9998
2 45570  53.0563 309.5047 0001625  61.6436 298.4716 15.06392889148666
STARLINK-1261           
1 45571U 20025AS  22357.81861088  .00004844  00000+0  34385-3 0  9995
2 45571  53.0557 297.3452 0002018  51.8159 308.3011 15.06401817148890
STARLINK-1320           
1 45572U 20025AT  22357.54584233  .00002942  00000+0  21636-3 0  9992
2 45572  53.0550 298.5803 0001622  61.2032 298.9120 15.06398692148848
